ALOS (DAICHI)           
1 28931U 06002A   26005.59500709  .00002125  00000+0  36611-3 0  9998
2 28931  98.1128 321.9191 0002014 101.4176 258.7256 14.69578072 64214
H-2A R/B                
1 28932U 06002B   26007.34848957  .00008486  00000+0  43959-3 0  9993
2 28932  98.2331 149.2016 0054642  90.1183 270.6308 15.15170283 85145
RESURS-DK 1             
1 29228U 06021A   26007.49497447  .00002808  00000+0  16772-3 0  9998
2 29228  69.9340  35.2682 0006642 237.6203 122.4321 15.12339504 78275
CZ-4B R/B               
1 29507U 06046C   26007.84087294  .00004352  00000+0  22547-3 0  9992
2 29507  97.5696  52.9083 0035188 117.2286 243.2539 15.16188454 50822
CZ-2C R/B               
1 31114U 07010B   26007.85650321  .00000172  00000+0  97594-4 0  9990
2 31114  98.3972 124.1933 0060060 110.8264 249.9360 14.20222467971085
COSMO-SKYMED 1          
1 31598U 07023A   26007.80912935  .00004496  00000+0  40604-3 0  9999
2 31598  97.8846 198.3833 0001615  84.9916 275.1489 14.96006242  5808
COSMOS 2428             
1 31792U 07029A   26007.57947061  .00000332  00000+0  20397-3 0  9995
2 31792  70.9387 331.6266 0005190 348.1103  11.9895 14.12904368955460
SL-16 R/B               
1 31793U 07029B   26007.83177309 -.00000042  00000+0  32033-5 0  9996
2 31793  70.9774 300.3104 0002175 272.9535 149.1099 14.14825871956765
KORONAS-FOTON           
1 33504U 09003A   26007.65571300  .00009952  00000+0  23384-3 0  9996
2 33504  82.4325 339.2396 0012138  27.8371 332.3522 15.41770349936334
CZ-2C R/B               
1 37731U 11030B   26007.87619679  .00001450  00000+0  18979-3 0  9990
2 37731  97.8449 326.4108 0052475 186.7057 231.3210 14.80994325781097
H-2A R/B                
1 38341U 12025E   26007.81768967  .00002796  00000+0  25910-3 0  9999
2 38341  98.4633 330.0664 0045544 150.3860 209.9952 14.94638223739121
SHIJIAN-16 (SJ-16)      
1 39358U 13057A   26007.88699867  .00002350  00000+0  23329-3 0  9991
2 39358  74.9740 300.1771 0017862 259.4114 100.5062 14.92111801662433
